<?xml version="1.0" encoding="UTF-8"?>
<ndm xmlns:xsi="http://www.w3.org/2001/XMLSchema-instance" xsi:noNamespaceSchemaLocation="https://sanaregistry.org/r/ndmxml_unqualified/ndmxml-2.0.0-master-2.0.xsd">
<omm id="CCSDS_OMM_VERS" version="2.0">
<header><CREATION_DATE/><ORIGINATOR/></header><body><segment><metadata><OBJECT_NAME>KUIPER-00053</OBJECT_NAME><OBJECT_ID>2025-134P</OBJECT_ID><CENTER_NAME>EARTH</CENTER_NAME><REF_FRAME>TEME</REF_FRAME><TIME_SYSTEM>UTC</TIME_SYSTEM><MEAN_ELEMENT_THEORY>SGP4</MEAN_ELEMENT_THEORY></metadata><data><meanElements><EPOCH>2025-10-01T20:00:01.999008</EPOCH><MEAN_MOTION>15.11090038</MEAN_MOTION><ECCENTRICITY>.000446</ECCENTRICITY><INCLINATION>51.8888</INCLINATION><RA_OF_ASC_NODE>208.0998</RA_OF_ASC_NODE><ARG_OF_PERICENTER>102.9653</ARG_OF_PERICENTER><MEAN_ANOMALY>175.4526</MEAN_ANOMALY></meanElements><tleParameters><EPHEMERIS_TYPE>0</EPHEMERIS_TYPE><CLASSIFICATION_TYPE>U</CLASSIFICATION_TYPE><NORAD_CAT_ID>64513</NORAD_CAT_ID><ELEMENT_SET_NO>999</ELEMENT_SET_NO><REV_AT_EPOCH>588</REV_AT_EPOCH><BSTAR>-.57643E-1</BSTAR><MEAN_MOTION_DOT>-.905399E-2</MEAN_MOTION_DOT><MEAN_MOTION_DDOT>0</MEAN_MOTION_DDOT></tleParameters></data></segment></body></omm>
<omm id="CCSDS_OMM_VERS" version="2.0">
<header><CREATION_DATE/><ORIGINATOR/></header><body><segment><metadata><OBJECT_NAME>KUIPER-00054</OBJECT_NAME><OBJECT_ID>2025-134Q</OBJECT_ID><CENTER_NAME>EARTH</CENTER_NAME><REF_FRAME>TEME</REF_FRAME><TIME_SYSTEM>UTC</TIME_SYSTEM><MEAN_ELEMENT_THEORY>SGP4</MEAN_ELEMENT_THEORY></metadata><data><meanElements><EPOCH>2025-10-01T20:00:01.999008</EPOCH><MEAN_MOTION>15.23989687</MEAN_MOTION><ECCENTRICITY>.0006854</ECCENTRICITY><INCLINATION>51.8792</INCLINATION><RA_OF_ASC_NODE>206.6801</RA_OF_ASC_NODE><ARG_OF_PERICENTER>111.4099</ARG_OF_PERICENTER><MEAN_ANOMALY>148.4979</MEAN_ANOMALY></meanElements><tleParameters><EPHEMERIS_TYPE>0</EPHEMERIS_TYPE><CLASSIFICATION_TYPE>U</CLASSIFICATION_TYPE><NORAD_CAT_ID>64514</NORAD_CAT_ID><ELEMENT_SET_NO>999</ELEMENT_SET_NO><REV_AT_EPOCH>507</REV_AT_EPOCH><BSTAR>-.20121E-2</BSTAR><MEAN_MOTION_DOT>-.49439E-3</MEAN_MOTION_DOT><MEAN_MOTION_DDOT>0</MEAN_MOTION_DDOT></tleParameters></data></segment></body></omm>
<omm id="CCSDS_OMM_VERS" version="2.0">
<header><CREATION_DATE/><ORIGINATOR/></header><body><segment><metadata><OBJECT_NAME>KUIPER-00055</OBJECT_NAME><OBJECT_ID>2025-134R</OBJECT_ID><CENTER_NAME>EARTH</CENTER_NAME><REF_FRAME>TEME</REF_FRAME><TIME_SYSTEM>UTC</TIME_SYSTEM><MEAN_ELEMENT_THEORY>SGP4</MEAN_ELEMENT_THEORY></metadata><data><meanElements><EPOCH>2025-10-01T20:00:01.999008</EPOCH><MEAN_MOTION>15.27097212</MEAN_MOTION><ECCENTRICITY>.0001511</ECCENTRICITY><INCLINATION>51.8818</INCLINATION><RA_OF_ASC_NODE>206.2839</RA_OF_ASC_NODE><ARG_OF_PERICENTER>128.4292</ARG_OF_PERICENTER><MEAN_ANOMALY>6.8719</MEAN_ANOMALY></meanElements><tleParameters><EPHEMERIS_TYPE>0</EPHEMERIS_TYPE><CLASSIFICATION_TYPE>U</CLASSIFICATION_TYPE><NORAD_CAT_ID>64515</NORAD_CAT_ID><ELEMENT_SET_NO>999</ELEMENT_SET_NO><REV_AT_EPOCH>519</REV_AT_EPOCH><BSTAR>-.34115E-1</BSTAR><MEAN_MOTION_DOT>-.847633E-2</MEAN_MOTION_DOT><MEAN_MOTION_DDOT>0</MEAN_MOTION_DDOT></tleParameters></data></segment></body></omm>
<omm id="CCSDS_OMM_VERS" version="2.0">
<header><CREATION_DATE/><ORIGINATOR/></header><body><segment><metadata><OBJECT_NAME>KUIPER-00056</OBJECT_NAME><OBJECT_ID>2025-134S</OBJECT_ID><CENTER_NAME>EARTH</CENTER_NAME><REF_FRAME>TEME</REF_FRAME><TIME_SYSTEM>UTC</TIME_SYSTEM><MEAN_ELEMENT_THEORY>SGP4</MEAN_ELEMENT_THEORY></metadata><data><meanElements><EPOCH>2025-10-01T20:00:01.999008</EPOCH><MEAN_MOTION>15.10499053</MEAN_MOTION><ECCENTRICITY>.0004428</ECCENTRICITY><INCLINATION>51.8821</INCLINATION><RA_OF_ASC_NODE>208.7701</RA_OF_ASC_NODE><ARG_OF_PERICENTER>117.4831</ARG_OF_PERICENTER><MEAN_ANOMALY>256.0170</MEAN_ANOMALY></meanElements><tleParameters><EPHEMERIS_TYPE>0</EPHEMERIS_TYPE><CLASSIFICATION_TYPE>U</CLASSIFICATION_TYPE><NORAD_CAT_ID>64516</NORAD_CAT_ID><ELEMENT_SET_NO>999</ELEMENT_SET_NO><REV_AT_EPOCH>362</REV_AT_EPOCH><BSTAR>-.39337E-1</BSTAR><MEAN_MOTION_DOT>-.617182E-2</MEAN_MOTION_DOT><MEAN_MOTION_DDOT>0</MEAN_MOTION_DDOT></tleParameters></data></segment></body></omm>
<omm id="CCSDS_OMM_VERS" version="2.0">
<header><CREATION_DATE/><ORIGINATOR/></header><body><segment><metadata><OBJECT_NAME>KUIPER-00057</OBJECT_NAME><OBJECT_ID>2025-134T</OBJECT_ID><CENTER_NAME>EARTH</CENTER_NAME><REF_FRAME>TEME</REF_FRAME><TIME_SYSTEM>UTC</TIME_SYSTEM><MEAN_ELEMENT_THEORY>SGP4</MEAN_ELEMENT_THEORY></metadata><data><meanElements><EPOCH>2025-10-01T20:00:01.999008</EPOCH><MEAN_MOTION>14.85133892</MEAN_MOTION><ECCENTRICITY>.001024</ECCENTRICITY><INCLINATION>51.8965</INCLINATION><RA_OF_ASC_NODE>214.1702</RA_OF_ASC_NODE><ARG_OF_PERICENTER>113.1460</ARG_OF_PERICENTER><MEAN_ANOMALY>8.3322</MEAN_ANOMALY></meanElements><tleParameters><EPHEMERIS_TYPE>0</EPHEMERIS_TYPE><CLASSIFICATION_TYPE>U</CLASSIFICATION_TYPE><NORAD_CAT_ID>64517</NORAD_CAT_ID><ELEMENT_SET_NO>999</ELEMENT_SET_NO><REV_AT_EPOCH>575</REV_AT_EPOCH><BSTAR>.32827E-2</BSTAR><MEAN_MOTION_DOT>.28273E-3</MEAN_MOTION_DOT><MEAN_MOTION_DDOT>0</MEAN_MOTION_DDOT></tleParameters></data></segment></body></omm>
<omm id="CCSDS_OMM_VERS" version="2.0">
<header><CREATION_DATE/><ORIGINATOR/></header><body><segment><metadata><OBJECT_NAME>KUIPER-00058</OBJECT_NAME><OBJECT_ID>2025-134U</OBJECT_ID><CENTER_NAME>EARTH</CENTER_NAME><REF_FRAME>TEME</REF_FRAME><TIME_SYSTEM>UTC</TIME_SYSTEM><MEAN_ELEMENT_THEORY>SGP4</MEAN_ELEMENT_THEORY></metadata><data><meanElements><EPOCH>2025-10-01T20:00:01.999008</EPOCH><MEAN_MOTION>15.07150049</MEAN_MOTION><ECCENTRICITY>.0007004</ECCENTRICITY><INCLINATION>51.8834</INCLINATION><RA_OF_ASC_NODE>209.8359</RA_OF_ASC_NODE><ARG_OF_PERICENTER>125.2840</ARG_OF_PERICENTER><MEAN_ANOMALY>81.4782</MEAN_ANOMALY></meanElements><tleParameters><EPHEMERIS_TYPE>0</EPHEMERIS_TYPE><CLASSIFICATION_TYPE>U</CLASSIFICATION_TYPE><NORAD_CAT_ID>64518</NORAD_CAT_ID><ELEMENT_SET_NO>999</ELEMENT_SET_NO><REV_AT_EPOCH>562</REV_AT_EPOCH><BSTAR>-.64075E-1</BSTAR><MEAN_MOTION_DOT>-.903491E-2</MEAN_MOTION_DOT><MEAN_MOTION_DDOT>0</MEAN_MOTION_DDOT></tleParameters></data></segment></body></omm>
<omm id="CCSDS_OMM_VERS" version="2.0">
<header><CREATION_DATE/><ORIGINATOR/></header><body><segment><metadata><OBJECT_NAME>KUIPER-00059</OBJECT_NAME><OBJECT_ID>2025-134V</OBJECT_ID><CENTER_NAME>EARTH</CENTER_NAME><REF_FRAME>TEME</REF_FRAME><TIME_SYSTEM>UTC</TIME_SYSTEM><MEAN_ELEMENT_THEORY>SGP4</MEAN_ELEMENT_THEORY></metadata><data><meanElements><EPOCH>2025-10-01T20:00:01.999008</EPOCH><MEAN_MOTION>15.18788034</MEAN_MOTION><ECCENTRICITY>.0000701</ECCENTRICITY><INCLINATION>51.8879</INCLINATION><RA_OF_ASC_NODE>207.3350</RA_OF_ASC_NODE><ARG_OF_PERICENTER>35.2742</ARG_OF_PERICENTER><MEAN_ANOMALY>323.2151</MEAN_ANOMALY></meanElements><tleParameters><EPHEMERIS_TYPE>0</EPHEMERIS_TYPE><CLASSIFICATION_TYPE>U</CLASSIFICATION_TYPE><NORAD_CAT_ID>64519</NORAD_CAT_ID><ELEMENT_SET_NO>999</ELEMENT_SET_NO><REV_AT_EPOCH>314</REV_AT_EPOCH><BSTAR>-.25809E-1</BSTAR><MEAN_MOTION_DOT>-.507742E-2</MEAN_MOTION_DOT><MEAN_MOTION_DDOT>0</MEAN_MOTION_DDOT></tleParameters></data></segment></body></omm>
<omm id="CCSDS_OMM_VERS" version="2.0">
<header><CREATION_DATE/><ORIGINATOR/></header><body><segment><metadata><OBJECT_NAME>KUIPER-00060</OBJECT_NAME><OBJECT_ID>2025-134W</OBJECT_ID><CENTER_NAME>EARTH</CENTER_NAME><REF_FRAME>TEME</REF_FRAME><TIME_SYSTEM>UTC</TIME_SYSTEM><MEAN_ELEMENT_THEORY>SGP4</MEAN_ELEMENT_THEORY></metadata><data><meanElements><EPOCH>2025-10-01T20:00:01.999008</EPOCH><MEAN_MOTION>15.16336909</MEAN_MOTION><ECCENTRICITY>.0002941</ECCENTRICITY><INCLINATION>51.8813</INCLINATION><RA_OF_ASC_NODE>207.3979</RA_OF_ASC_NODE><ARG_OF_PERICENTER>117.9842</ARG_OF_PERICENTER><MEAN_ANOMALY>143.3582</MEAN_ANOMALY></meanElements><tleParameters><EPHEMERIS_TYPE>0</EPHEMERIS_TYPE><CLASSIFICATION_TYPE>U</CLASSIFICATION_TYPE><NORAD_CAT_ID>64520</NORAD_CAT_ID><ELEMENT_SET_NO>999</ELEMENT_SET_NO><REV_AT_EPOCH>473</REV_AT_EPOCH><BSTAR>-.37922E-1</BSTAR><MEAN_MOTION_DOT>-.695801E-2</MEAN_MOTION_DOT><MEAN_MOTION_DDOT>0</MEAN_MOTION_DDOT></tleParameters></data></segment></body></omm>

</ndm>
