KUIPER-00053            
1 64513U 25134P   25274.83335647 -.00905399  00000+0 -57643-1 0  9995
2 64513  51.8888 208.0998 0004460 102.9653 175.4526 15.11090038  5884
KUIPER-00054            
1 64514U 25134Q   25274.83335647 -.00049439  00000+0 -20121-2 0  9992
2 64514  51.8792 206.6801 0006854 111.4099 148.4979 15.23989687  5077
KUIPER-00055            
1 64515U 25134R   25274.83335647 -.00847633  00000+0 -34115-1 0  9992
2 64515  51.8818 206.2839 0001511 128.4292   6.8719 15.27097212  5192
KUIPER-00056            
1 64516U 25134S   25274.83335647 -.00617182  00000+0 -39337-1 0  9998
2 64516  51.8821 208.7701 0004428 117.4831 256.0170 15.10499053  3626
KUIPER-00057            
1 64517U 25134T   25274.83335647  .00028273  00000+0  32827-2 0  9992
2 64517  51.8965 214.1702 0010240 113.1460   8.3322 14.85133892  5758
KUIPER-00058            
1 64518U 25134U   25274.83335647 -.00903491  00000+0 -64075-1 0  9998
2 64518  51.8834 209.8359 0007004 125.2840  81.4782 15.07150049  5629
KUIPER-00059            
1 64519U 25134V   25274.83335647 -.00507742  00000+0 -25809-1 0  9990
2 64519  51.8879 207.3350 0000701  35.2742 323.2151 15.18788034  3146
KUIPER-00060            
1 64520U 25134W   25274.83335647 -.00695801  00000+0 -37922-1 0  9995
2 64520  51.8813 207.3979 0002941 117.9842 143.3582 15.16336909  4733
